GLOBALSTAR M001 [-]     
1 25162U 98008A   23226.98839799 -.00000125  00000+0 -21836-3 0  9990
2 25162  52.0026 129.6310 0001385 301.3741  71.7978 12.38166368160551
GLOBALSTAR M004 [-]     
1 25163U 98008B   23226.44169209 -.00000129  00000+0 -13866-3 0  9992
2 25163  52.0002 306.4448 0002879 225.7259 214.3713 12.63335448176751
GLOBALSTAR M002 [-]     
1 25164U 98008C   23227.22509470 -.00000065  00000+0  21848-3 0  9995
2 25164  52.0005 125.0137 0001878   7.4416 352.6431 11.61495096106055
GLOBALSTAR M003 [-]     
1 25165U 98008D   23227.33565111  .00000042  00000+0  13990-2 0  9994
2 25165  51.9683 229.4478 0007767  21.9746  82.5349 12.11928725151843
GLOBALSTAR M014 [-]     
1 25306U 98023A   23227.26896667 -.00000053  00000+0  45253-3 0  9994
2 25306  51.9843  62.2486 0000651 137.3765  33.6416 11.65458876112817
GLOBALSTAR M006 [-]     
1 25307U 98023B   23227.08957074 -.00000086  00000+0 -21478-3 0  9995
2 25307  51.9937  90.0573 0003732 351.8109 177.8245 11.58153199139065
GLOBALSTAR M015 [-]     
1 25308U 98023C   23227.30335317 -.00000089  00000+0 -35211-3 0  9994
2 25308  51.9805 157.2148 0012631 324.6124 203.0979 11.48849142117237
GLOBALSTAR M008 [-]     
1 25309U 98023D   23227.11025054 -.00000100  00000+0 -31304-4 0  9992
2 25309  51.9997 346.5007 0002640 181.6100 349.3240 12.36025304155041
